{
  "type": "FeatureCollection",
  "features": [
    {
      "type": "Feature",
      "properties": {
        "norad_id": 39773,
        "name": "EUTELSAT 3B",
        "group": "eutelsat",
        "lat": -0.02020176302076131,
        "lon": -178.02658445010542,
        "alt_km": 35772.03503094648,
        "timestamp": "2025-12-02T07:10:08.781006+00:00",
        "meta_object_name": "EUTELSAT 3B",
        "meta_object_id": "2014-030A",
        "meta_epoch": "2025-12-01T18:57:59.669280",
        "meta_mean_motion": 1.00270526,
        "meta_eccentricity": 0.000475,
        "meta_inclination": 0.0629,
        "meta_ra_of_asc_node": 357.7791,
        "meta_arg_of_pericenter": 228.3857,
        "meta_mean_anomaly": 132.3386,
        "meta_ephemeris_type": 0,
        "meta_classification_type": "U",
        "meta_norad_cat_id": 39773,
        "meta_element_set_no": 999,
        "meta_rev_at_epoch": 4208,
        "meta_bstar": 0,
        "meta_mean_motion_dot": 4.1e-07,
        "meta_mean_motion_ddot": 0,
        "tle_line1": "1 39773U 14030A   25335.79027395  .00000041  00000+0  00000+0 0  9990",
        "tle_line2": "2 39773   0.0629 357.7791 0004750 228.3857 132.3386  1.00270526 42081"
      },
      "geometry": {
        "type": "Point",
        "coordinates": [
          -178.02658445010542,
          -0.02020176302076131
        ]
      }
    },
    {
      "type": "Feature",
      "properties": {
        "norad_id": 40425,
        "name": "EUTELSAT 115 WEST B",
        "group": "eutelsat",
        "lat": 0.00927279149501306,
        "lon": 64.018477528812,
        "alt_km": 35785.07970640729,
        "timestamp": "2025-12-02T07:10:08.781025+00:00",
        "meta_object_name": "EUTELSAT 115 WEST B",
        "meta_object_id": "2015-010B",
        "meta_epoch": "2025-12-01T14:58:48.415872",
        "meta_mean_motion": 1.00272371,
        "meta_eccentricity": 2.04e-05,
        "meta_inclination": 0.0354,
        "meta_ra_of_asc_node": 150.9347,
        "meta_arg_of_pericenter": 253.7001,
        "meta_mean_anomaly": 135.9102,
        "meta_ephemeris_type": 0,
        "meta_classification_type": "U",
        "meta_norad_cat_id": 40425,
        "meta_element_set_no": 999,
        "meta_rev_at_epoch": 3941,
        "meta_bstar": 0,
        "meta_mean_motion_dot": -4e-08,
        "meta_mean_motion_ddot": 0,
        "tle_line1": "1 40425U 15010B   25335.62417148 -.00000004  00000+0  00000+0 0  9996",
        "tle_line2": "2 40425   0.0354 150.9347 0000204 253.7001 135.9102  1.00272371 39413"
      },
      "geometry": {
        "type": "Point",
        "coordinates": [
          64.018477528812,
          0.00927279149501306
        ]
      }
    },
    {
      "type": "Feature",
      "properties": {
        "norad_id": 40875,
        "name": "EUTELSAT 8 WEST B",
        "group": "eutelsat",
        "lat": -0.021062644862224568,
        "lon": 170.87209252914425,
        "alt_km": 35783.85085401146,
        "timestamp": "2025-12-02T07:10:08.781051+00:00",
        "meta_object_name": "EUTELSAT 8 WEST B",
        "meta_object_id": "2015-039B",
        "meta_epoch": "2025-12-01T18:54:44.978976",
        "meta_mean_motion": 1.00271628,
        "meta_eccentricity": 0.0004131,
        "meta_inclination": 0.0662,
        "meta_ra_of_asc_node": 343.9222,
        "meta_arg_of_pericenter": 269.5687,
        "meta_mean_anomaly": 93.1048,
        "meta_ephemeris_type": 0,
        "meta_classification_type": "U",
        "meta_norad_cat_id": 40875,
        "meta_element_set_no": 999,
        "meta_rev_at_epoch": 3767,
        "meta_bstar": 0,
        "meta_mean_motion_dot": -4.4e-07,
        "meta_mean_motion_ddot": 0,
        "tle_line1": "1 40875U 15039B   25335.78802059 -.00000044  00000+0  00000+0 0  9996",
        "tle_line2": "2 40875   0.0662 343.9222 0004131 269.5687  93.1048  1.00271628 37672"
      },
      "geometry": {
        "type": "Point",
        "coordinates": [
          170.87209252914425,
          -0.021062644862224568
        ]
      }
    },
    {
      "type": "Feature",
      "properties": {
        "norad_id": 41310,
        "name": "EUTELSAT 9B",
        "group": "eutelsat",
        "lat": 0.029380820099739444,
        "lon": -172.1534091252761,
        "alt_km": 35781.19355728653,
        "timestamp": "2025-12-02T07:10:08.781070+00:00",
        "meta_object_name": "EUTELSAT 9B",
        "meta_object_id": "2016-005A",
        "meta_epoch": "2025-12-01T18:59:37.011840",
        "meta_mean_motion": 1.00270877,
        "meta_eccentricity": 0.0004804,
        "meta_inclination": 0.0611,
        "meta_ra_of_asc_node": 74.3606,
        "meta_arg_of_pericenter": 189.1396,
        "meta_mean_anomaly": 101.2975,
        "meta_ephemeris_type": 0,
        "meta_classification_type": "U",
        "meta_norad_cat_id": 41310,
        "meta_element_set_no": 999,
        "meta_rev_at_epoch": 3613,
        "meta_bstar": 0,
        "meta_mean_motion_dot": 8.3e-07,
        "meta_mean_motion_ddot": 0,
        "tle_line1": "1 41310U 16005A   25335.79140060  .00000083  00000+0  00000+0 0  9995",
        "tle_line2": "2 41310   0.0611  74.3606 0004804 189.1396 101.2975  1.00270877 36138"
      },
      "geometry": {
        "type": "Point",
        "coordinates": [
          -172.1534091252761,
          0.029380820099739444
        ]
      }
    },
    {
      "type": "Feature",
      "properties": {
        "norad_id": 41382,
        "name": "EUTELSAT 65 WEST A",
        "group": "eutelsat",
        "lat": 0.044422654468007784,
        "lon": 113.69677392025368,
        "alt_km": 35795.3608594894,
        "timestamp": "2025-12-02T07:10:08.781082+00:00",
        "meta_object_name": "EUTELSAT 65 WEST A",
        "meta_object_id": "2016-014A",
        "meta_epoch": "2025-12-01T18:38:24.046080",
        "meta_mean_motion": 1.00271304,
        "meta_eccentricity": 0.0002682,
        "meta_inclination": 0.0511,
        "meta_ra_of_asc_node": 339.2939,
        "meta_arg_of_pericenter": 277.6691,
        "meta_mean_anomaly": 28.3311,
        "meta_ephemeris_type": 0,
        "meta_classification_type": "U",
        "meta_norad_cat_id": 41382,
        "meta_element_set_no": 999,
        "meta_rev_at_epoch": 3555,
        "meta_bstar": 0,
        "meta_mean_motion_dot": -2.55e-06,
        "meta_mean_motion_ddot": 0,
        "tle_line1": "1 41382U 16014A   25335.77666720 -.00000255  00000+0  00000+0 0  9990",
        "tle_line2": "2 41382   0.0511 339.2939 0002682 277.6691  28.3311  1.00271304 35555"
      },
      "geometry": {
        "type": "Point",
        "coordinates": [
          113.69677392025368,
          0.044422654468007784
        ]
      }
    },
    {
      "type": "Feature",
      "properties": {
        "norad_id": 41589,
        "name": "EUTELSAT 117 WEST B",
        "group": "eutelsat",
        "lat": -0.015361048658831214,
        "lon": 61.92608314237922,
        "alt_km": 35786.26060168795,
        "timestamp": "2025-12-02T07:10:08.781095+00:00",
        "meta_object_name": "EUTELSAT 117 WEST B",
        "meta_object_id": "2016-038B",
        "meta_epoch": "2025-12-01T14:58:10.977024",
        "meta_mean_motion": 1.00272248,
        "meta_eccentricity": 1.08e-05,
        "meta_inclination": 0.0065,
        "meta_ra_of_asc_node": 141.8344,
        "meta_arg_of_pericenter": 143.4656,
        "meta_mean_anomaly": 252.9964,
        "meta_ephemeris_type": 0,
        "meta_classification_type": "U",
        "meta_norad_cat_id": 41589,
        "meta_element_set_no": 999,
        "meta_rev_at_epoch": 3468,
        "meta_bstar": 0,
        "meta_mean_motion_dot": 1e-07,
        "meta_mean_motion_ddot": 0,
        "tle_line1": "1 41589U 16038B   25335.62373816  .00000010  00000+0  00000+0 0  9998",
        "tle_line2": "2 41589   0.0065 141.8344 0000108 143.4656 252.9964  1.00272248 34687"
      },
      "geometry": {
        "type": "Point",
        "coordinates": [
          61.92608314237922,
          -0.015361048658831214
        ]
      }
    },
    {
      "type": "Feature",
      "properties": {
        "norad_id": 42741,
        "name": "EUTELSAT 172B",
        "group": "eutelsat",
        "lat": 0.006144597596400501,
        "lon": -9.088747511703739,
        "alt_km": 35786.394439624004,
        "timestamp": "2025-12-02T07:10:08.781107+00:00",
        "meta_object_name": "EUTELSAT 172B",
        "meta_object_id": "2017-029B",
        "meta_epoch": "2025-12-01T14:37:57.912384",
        "meta_mean_motion": 1.00271035,
        "meta_eccentricity": 1.03e-05,
        "meta_inclination": 0.001,
        "meta_ra_of_asc_node": 358.3904,
        "meta_arg_of_pericenter": 244.8578,
        "meta_mean_anomaly": 218.9678,
        "meta_ephemeris_type": 0,
        "meta_classification_type": "U",
        "meta_norad_cat_id": 42741,
        "meta_element_set_no": 999,
        "meta_rev_at_epoch": 3175,
        "meta_bstar": 0,
        "meta_mean_motion_dot": 1.6e-07,
        "meta_mean_motion_ddot": 0,
        "tle_line1": "1 42741U 17029B   25335.60969806  .00000016  00000+0  00000+0 0  9994",
        "tle_line2": "2 42741   0.0010 358.3904 0000103 244.8578 218.9678  1.00271035 31751"
      },
      "geometry": {
        "type": "Point",
        "coordinates": [
          -9.088747511703739,
          0.006144597596400501
        ]
      }
    }
  ]
}